[
  {
    "name": "UTMN 2 (RS27S)",
    "line1": "1 57203U 23091AP  26171.45706625  .00010973  00000+0  35586-3 0  9993",
    "line2": "2 57203  97.5082 238.7236 0009091  74.0952 286.1291 15.32118609165048"
  },
  {
    "name": "KUZGTU 1 (RS47S)",
    "line1": "1 57217U 23091AV  26171.43523323  .00009496  00000+0  32966-3 0  9995",
    "line2": "2 57217  97.5059 235.9484 0012235  88.0892 272.1750 15.29921794164871"
  },
  {
    "name": "H2SAT (HEINRICH HERTZ)",
    "line1": "1 57213U 23093A   26170.96441058 -.00000004  00000+0  00000+0 0  9991",
    "line2": "2 57213   0.0547 104.6262 0000924  92.6961  58.7472  1.00267176 10942"
  },
  {
    "name": "SITRO-AIS 6 (CHIRKIN)",
    "line1": "1 57192U 23091AC  26171.39296963  .00008649  00000+0  33853-3 0  9994",
    "line2": "2 57192  97.5062 234.4251 0013089  96.6916 263.5812 15.25985001164772"
  },
  {
    "name": "SITRO-AIS 8 (ANOKHIN)",
    "line1": "1 57193U 23091AD  26171.41797191  .00012039  00000+0  38868-3 0  9996",
    "line2": "2 57193  97.5051 236.9502 0011710  90.0365 270.2218 15.32211056164946"
  },
  {
    "name": "SITRO-AIS 7 (FARTUSHNIY)",
    "line1": "1 57194U 23091AE  26171.39677419  .00008457  00000+0  33420-3 0  9992",
    "line2": "2 57194  97.5059 234.2523 0012947  97.5940 262.6768 15.25672072164769"
  },
  {
    "name": "AVION KALUGA 650",
    "line1": "1 57195U 23091AF  26171.38715630  .00004706  00000+0  21891-3 0  9992",
    "line2": "2 57195  97.5085 230.9508 0011948  99.6178 260.6408 15.20380405164514"
  },
  {
    "name": "HORS 2",
    "line1": "1 57196U 23091AG  26171.43018350  .00010337  00000+0  33707-3 0  9990",
    "line2": "2 57196  97.5083 238.5042 0009195  78.2601 281.9671 15.31959116165023"
  },
  {
    "name": "A-SEANSAT-PG1",
    "line1": "1 57197U 23091AH  26171.39658034  .00015553  00000+0  43049-3 0  9990",
    "line2": "2 57197  97.5074 241.0466 0008093  75.7727 284.4415 15.37053260165205"
  },
  {
    "name": "SITRO-AIS 10 (BURDAEV)",
    "line1": "1 57199U 23091AK  26171.43590034  .00016933  00000+0  44399-3 0  9994",
    "line2": "2 57199  97.5075 242.0561 0007284  70.7474 289.4558 15.38716536165262"
  },
  {
    "name": "SITRO-AIS 9 (SHCHUKIN)",
    "line1": "1 57201U 23091AM  26171.46334057  .00016878  00000+0  44967-3 0  9991",
    "line2": "2 57201  97.5073 241.8115 0007548  70.6764 289.5297 15.38222800165256"
  },
  {
    "name": "SITRO-AIS 12 (SMIRENNIY)",
    "line1": "1 57204U 23091AQ  26171.45333795  .00016504  00000+0  43566-3 0  9991",
    "line2": "2 57204  97.5087 242.2705 0007058  65.6570 294.5411 15.38515781165278"
  },
  {
    "name": "SITRO-AIS 11 (SHEFFER)",
    "line1": "1 57208U 23091AU  26171.46585007  .00017161  00000+0  44666-3 0  9993",
    "line2": "2 57208  97.5084 242.5320 0006969  65.6009 294.5963 15.38942801165293"
  },
  {
    "name": "QIANKUN-1",
    "line1": "1 57422U 23103B   26171.15817264  .00019183  18178-5  22915-4 0  9995",
    "line2": "2 57422  96.1527 215.7959 0032013 149.2714 211.0455 16.07655077167777"
  },
  {
    "name": "FENGYUN 3F",
    "line1": "1 57490U 23111A   26172.48399582  .00000011  00000+0  25698-4 0  9994",
    "line2": "2 57490  98.6835 242.4127 0001582  90.3874 269.7484 14.19939702149475"
  },
  {
    "name": "METEOR 2-1 DEB",
    "line1": "1 57492U 75064F   26165.77584289  .00003588  00000+0  14005-2 0  9994",
    "line2": "2 57492  81.2788   1.6625 0009642  76.6019 283.6236 14.29459636402648"
  },
  {
    "name": "HJ-2F",
    "line1": "1 57519U 23116A   26172.52492000  .00005835  00000+0  25550-3 0  9990",
    "line2": "2 57519  97.3847 177.6678 0009426  39.0798 321.1118 15.22372221159410"
  },
  {
    "name": "XRISM",
    "line1": "1 57800U 23137A   26171.16040668  .00004151  00000+0  22709-3 0  9997",
    "line2": "2 57800  31.0032 340.3423 0007922 353.3613   6.6920 15.12489019153310"
  },
  {
    "name": "METEOR-M2 4",
    "line1": "1 59051U 24039A   26172.54463940  .00000004  00000+0  21415-4 0  9991",
    "line2": "2 59051  98.7012 131.7880 0007535 149.0442 211.1182 14.22429890119885"
  },
  {
    "name": "GRBBETA",
    "line1": "1 60237U 24128C   26171.40570095  .00002226  00000+0  16133-3 0  9990",
    "line2": "2 60237  61.9881 204.9739 0040241 135.3081 225.1267 15.06654606106752"
  },
  {
    "name": "TRANSPORTER-11 OBJECT A",
    "line1": "1 60468U 24149A   26171.48261920  .00007433  00000+0  23597-3 0  9998",
    "line2": "2 60468  97.3726 251.4022 0003157 182.1001 178.0228 15.32951609102568"
  },
  {
    "name": "WARATAH SEED-1",
    "line1": "1 60469U 24149B   26170.91243996  .00011134  00000+0  31982-3 0  9999",
    "line2": "2 60469  97.3686 251.4895 0001740 169.9542 190.1737 15.36001503102531"
  },
  {
    "name": "PHISAT 2",
    "line1": "1 60470U 24149C   26171.18436109  .00005667  00000+0  19120-3 0  9995",
    "line2": "2 60470  97.3754 250.3841 0001380 167.6566 192.4709 15.31097549102454"
  },
  {
    "name": "LEMUR-2-TOMATOKECHUP",
    "line1": "1 60471U 24149D   26171.23424260  .00009043  00000+0  25956-3 0  9993",
    "line2": "2 60471  97.3792 253.2890 0001698 170.5743 189.5533 15.36085472102634"
  },
  {
    "name": "CONNECTA IOT-1",
    "line1": "1 60472U 24149E   26171.44543448  .00003210  00000+0  13722-3 0  9995",
    "line2": "2 60472  97.3755 247.6820 0000465 222.4815 137.6386 15.23561077102290"
  },
  {
    "name": "LOPEN",
    "line1": "1 60473U 24149F   26171.18484805  .00013008  00000+0  33057-3 0  9997",
    "line2": "2 60473  97.3773 254.5764 0001099 176.9324 183.1929 15.39759663102721"
  },
  {
    "name": "ROCK",
    "line1": "1 60474U 24149G   26170.78150342  .00012553  00000+0  31927-3 0  9997",
    "line2": "2 60474  97.3773 254.1857 0001350 184.7634 175.3600 15.39743650102663"
  },
  {
    "name": "CONNECTA IOT-3",
    "line1": "1 60475U 24149H   26171.46678433  .00003250  00000+0  13883-3 0  9995",
    "line2": "2 60475  97.3732 247.4550 0001571 230.2025 129.9074 15.23573307102304"
  },
  {
    "name": "QUBE",
    "line1": "1 60476U 24149J   26171.21310969  .00021431  00000+0  42125-3 0  9998",
    "line2": "2 60476  97.3776 257.7050 0002266 183.6112 176.5122 15.47306824102937"
  },
  {
    "name": "WREN-1",
    "line1": "1 60478U 24149L   26171.18509494  .00017541  00000+0  41786-3 0  9998",
    "line2": "2 60478  97.3762 255.3295 0003447 234.5594 125.5332 15.41652422102783"
  }
]