OBJECT_NAME,OBJECT_ID,EPOCH,MEAN_MOTION,ECCENTRICITY,INCLINATION,RA_OF_ASC_NODE,ARG_OF_PERICENTER,MEAN_ANOMALY,EPHEMERIS_TYPE,CLASSIFICATION_TYPE,NORAD_CAT_ID,ELEMENT_SET_NO,REV_AT_EPOCH,BSTAR,MEAN_MOTION_DOT,MEAN_MOTION_DDOT
SITRO-AIS 6 (CHIRKIN),2023-091AC,2026-06-20T09:25:52.576032,15.25985001,.0013089,97.5062,234.4251,96.6916,263.5812,0,U,57192,999,16477,.33853E-3,.8649E-4,0
SITRO-AIS 8 (ANOKHIN),2023-091AD,2026-06-20T10:01:52.773024,15.32211056,.001171,97.5051,236.9502,90.0365,270.2218,0,U,57193,999,16494,.38868E-3,.12039E-3,0
SITRO-AIS 7 (FARTUSHNIY),2023-091AE,2026-06-20T09:31:21.290016,15.25672072,.0012947,97.5059,234.2523,97.5940,262.6768,0,U,57194,999,16476,.3342E-3,.8457E-4,0
AVION KALUGA 650,2023-091AF,2026-06-20T09:17:30.304320,15.20380405,.0011948,97.5085,230.9508,99.6178,260.6408,0,U,57195,999,16451,.21891E-3,.4706E-4,0
HORS 2,2023-091AG,2026-06-20T10:19:27.854400,15.31959116,.0009195,97.5083,238.5042,78.2601,281.9671,0,U,57196,999,16502,.33707E-3,.10337E-3,0
A-SEANSAT-PG1,2023-091AH,2026-06-20T09:31:04.541376,15.37053260,.0008093,97.5074,241.0466,75.7727,284.4415,0,U,57197,999,16520,.43049E-3,.15553E-3,0
SITRO-AIS 10 (BURDAEV),2023-091AK,2026-06-20T10:27:41.789376,15.38716536,.0007284,97.5075,242.0561,70.7474,289.4558,0,U,57199,999,16526,.44399E-3,.16933E-3,0
SITRO-AIS 9 (SHCHUKIN),2023-091AM,2026-06-20T11:07:12.625248,15.38222800,.0007548,97.5073,241.8115,70.6764,289.5297,0,U,57201,999,16525,.44967E-3,.16878E-3,0
UTMN 2 (RS27S),2023-091AP,2026-06-20T10:58:10.524000,15.32118609,.0009091,97.5082,238.7236,74.0952,286.1291,0,U,57203,999,16504,.35586E-3,.10973E-3,0
SITRO-AIS 12 (SMIRENNIY),2023-091AQ,2026-06-20T10:52:48.398880,15.38515781,.0007058,97.5087,242.2705,65.6570,294.5411,0,U,57204,999,16527,.43566E-3,.16504E-3,0
SITRO-AIS 11 (SHEFFER),2023-091AU,2026-06-20T11:10:49.446048,15.38942801,.0006969,97.5084,242.5320,65.6009,294.5963,0,U,57208,999,16529,.44666E-3,.17161E-3,0
H2SAT (HEINRICH HERTZ),2023-093A,2026-06-19T23:08:45.074112,1.00267176,.00009244,0.0547,104.6262,92.6961,58.7472,0,U,57213,999,1094,0,-.4E-7,0
KUZGTU 1 (RS47S),2023-091AV,2026-06-20T10:26:44.151072,15.29921794,.0012235,97.5059,235.9484,88.0892,272.1750,0,U,57217,999,16487,.32966E-3,.9496E-4,0
QIANKUN-1,2023-103B,2026-06-20T03:47:46.116096,16.07655077,.00320137,96.1527,215.7959,149.2714,211.0455,0,U,57422,999,16777,.22915305E-4,.19183E-3,.1817848E-5
FENGYUN 3F,2023-111A,2026-06-21T11:36:57.238848,14.19939702,.0001582,98.6835,242.4127,90.3874,269.7484,0,U,57490,999,14947,.25698E-4,.11E-6,0
METEOR 2-1 DEB,1975-064F,2026-06-14T18:37:12.825696,14.29459636,.00096426,81.2788,1.6625,76.6019,283.6236,0,U,57492,999,40264,.14004865E-2,.3588E-4,0
HJ-2F,2023-116A,2026-06-21T12:35:53.088000,15.22372221,.0009426,97.3847,177.6678,39.0798,321.1118,0,U,57519,999,15941,.2555E-3,.5835E-4,0
XRISM,2023-137A,2026-06-20T03:50:59.137152,15.12489019,.00079222,31.0032,340.3423,353.3613,6.6920,0,U,57800,999,15331,.22708659E-3,.4151E-4,0
METEOR-M2 4,2024-039A,2026-06-21T13:04:16.844160,14.22429890,.0007535,98.7012,131.7880,149.0442,211.1182,0,U,59051,999,11988,.21415E-4,.4E-7,0
GRBBETA,2024-128C,2026-06-20T09:44:12.562080,15.06654606,.0040241,61.9881,204.9739,135.3081,225.1267,0,U,60237,999,10675,.16133E-3,.2226E-4,0
TRANSPORTER-11 OBJECT A,2024-149A,2026-06-20T11:34:58.298880,15.32951609,.0003157,97.3726,251.4022,182.1001,178.0228,0,U,60468,999,10256,.23597E-3,.7433E-4,0
WARATAH SEED-1,2024-149B,2026-06-19T21:53:54.812544,15.36001503,.00017404,97.3686,251.4895,169.9542,190.1737,0,U,60469,999,10253,.31981652E-3,.11134E-3,0
PHISAT 2,2024-149C,2026-06-20T04:25:28.798176,15.31097549,.00013801,97.3754,250.3841,167.6566,192.4709,0,U,60470,999,10245,.19120186E-3,.5667E-4,0
LEMUR-2-TOMATOKECHUP,2024-149D,2026-06-20T05:37:18.560640,15.36085472,.0001698,97.3792,253.2890,170.5743,189.5533,0,U,60471,999,10263,.25956E-3,.9043E-4,0
CONNECTA IOT-1,2024-149E,2026-06-20T10:41:25.539072,15.23561077,.0000465,97.3755,247.6820,222.4815,137.6386,0,U,60472,999,10229,.13722E-3,.321E-4,0
LOPEN,2024-149F,2026-06-20T04:26:10.871520,15.39759663,.00010998,97.3773,254.5764,176.9324,183.1929,0,U,60473,999,10272,.3305669E-3,.13008E-3,0
ROCK,2024-149G,2026-06-19T18:45:21.895488,15.39743650,.00013507,97.3773,254.1857,184.7634,175.3600,0,U,60474,999,10266,.31927013E-3,.12553E-3,0
CONNECTA IOT-3,2024-149H,2026-06-20T11:12:10.166112,15.23573307,.0001571,97.3732,247.4550,230.2025,129.9074,0,U,60475,999,10230,.13883E-3,.325E-4,0
QUBE,2024-149J,2026-06-20T05:06:52.677216,15.47306824,.00022667,97.3776,257.7050,183.6112,176.5122,0,U,60476,999,10293,.42124674E-3,.21431E-3,0
WREN-1,2024-149L,2026-06-20T04:26:32.202816,15.41652422,.00034472,97.3762,255.3295,234.5594,125.5332,0,U,60478,999,10278,.41786315E-3,.17541E-3,0
